CCSDS_OMM_VERS = 2.0
CREATION_DATE  = 
ORIGINATOR     = 

OBJECT_NAME    = STARLINK-35796
OBJECT_ID      = 2025-265AB
CENTER_NAME    = EARTH
REF_FRAME      = TEME
TIME_SYSTEM    = UTC
MEAN_ELEMENT_THEORY = SGP/SGP4

EPOCH          = 2025-12-14T20:00:06.000192
MEAN_MOTION    = 15.40678513
ECCENTRICITY   = .0001315
INCLINATION    = 43.0005
RA_OF_ASC_NODE = 41.7470
ARG_OF_PERICENTER = 295.0038
MEAN_ANOMALY   = 33.6054

EPHEMERIS_TYPE = 0
CLASSIFICATION_TYPE = U
NORAD_CAT_ID   = 66541
ELEMENT_SET_NO = 999
REV_AT_EPOCH   = 533
BSTAR          = .66251225E-4
MEAN_MOTION_DOT = .2463E-4
MEAN_MOTION_DDOT = 0

CCSDS_OMM_VERS = 2.0
CREATION_DATE  = 
ORIGINATOR     = 

OBJECT_NAME    = STARLINK-35833
OBJECT_ID      = 2025-265AC
CENTER_NAME    = EARTH
REF_FRAME      = TEME
TIME_SYSTEM    = UTC
MEAN_ELEMENT_THEORY = SGP/SGP4

EPOCH          = 2025-12-14T20:00:06.000192
MEAN_MOTION    = 15.47034293
ECCENTRICITY   = .00016269
INCLINATION    = 43.0008
RA_OF_ASC_NODE = 41.6649
ARG_OF_PERICENTER = 267.9816
MEAN_ANOMALY   = 94.5042

EPHEMERIS_TYPE = 0
CLASSIFICATION_TYPE = U
NORAD_CAT_ID   = 66542
ELEMENT_SET_NO = 999
REV_AT_EPOCH   = 533
BSTAR          = -.45376433E-1
MEAN_MOTION_DOT = -.2086295E-1
MEAN_MOTION_DDOT = 0

CCSDS_OMM_VERS = 2.0
CREATION_DATE  = 
ORIGINATOR     = 

OBJECT_NAME    = STARLINK-35315
OBJECT_ID      = 2025-265AD
CENTER_NAME    = EARTH
REF_FRAME      = TEME
TIME_SYSTEM    = UTC
MEAN_ELEMENT_THEORY = SGP/SGP4

EPOCH          = 2025-12-14T10:41:07.308672
MEAN_MOTION    = 15.50621902
ECCENTRICITY   = .00010173
INCLINATION    = 42.9999
RA_OF_ASC_NODE = 43.9174
ARG_OF_PERICENTER = 261.4925
MEAN_ANOMALY   = 98.5820

EPHEMERIS_TYPE = 0
CLASSIFICATION_TYPE = U
NORAD_CAT_ID   = 66543
ELEMENT_SET_NO = 999
REV_AT_EPOCH   = 402
BSTAR          = .14377021E-2
MEAN_MOTION_DOT = .85052E-3
MEAN_MOTION_DDOT = 0

CCSDS_OMM_VERS = 2.0
CREATION_DATE  = 
ORIGINATOR     = 

OBJECT_NAME    = STARLINK-35728
OBJECT_ID      = 2025-265AE
CENTER_NAME    = EARTH
REF_FRAME      = TEME
TIME_SYSTEM    = UTC
MEAN_ELEMENT_THEORY = SGP/SGP4

EPOCH          = 2025-12-14T10:40:37.826400
MEAN_MOTION    = 15.50605053
ECCENTRICITY   = .00019041
INCLINATION    = 43.0005
RA_OF_ASC_NODE = 43.9142
ARG_OF_PERICENTER = 264.9770
MEAN_ANOMALY   = 95.0873

EPHEMERIS_TYPE = 0
CLASSIFICATION_TYPE = U
NORAD_CAT_ID   = 66544
ELEMENT_SET_NO = 999
REV_AT_EPOCH   = 402
BSTAR          = .1358556E-2
MEAN_MOTION_DOT = .80256E-3
MEAN_MOTION_DDOT = 0

CCSDS_OMM_VERS = 2.0
CREATION_DATE  = 
ORIGINATOR     = 

OBJECT_NAME    = SHIJIAN-30A
OBJECT_ID      = 2025-266A
CENTER_NAME    = EARTH
REF_FRAME      = TEME
TIME_SYSTEM    = UTC
MEAN_ELEMENT_THEORY = SGP/SGP4

EPOCH          = 2025-12-14T22:23:37.433760
MEAN_MOTION    = 15.15503547
ECCENTRICITY   = .00129043
INCLINATION    = 51.7981
RA_OF_ASC_NODE = 322.5871
ARG_OF_PERICENTER = 4.3743
MEAN_ANOMALY   = 355.7344

EPHEMERIS_TYPE = 0
CLASSIFICATION_TYPE = U
NORAD_CAT_ID   = 66545
ELEMENT_SET_NO = 999
REV_AT_EPOCH   = 391
BSTAR          = .46148062E-3
MEAN_MOTION_DOT = .8565E-4
MEAN_MOTION_DDOT = 0

CCSDS_OMM_VERS = 2.0
CREATION_DATE  = 
ORIGINATOR     = 

OBJECT_NAME    = SHIJIAN-30B
OBJECT_ID      = 2025-266B
CENTER_NAME    = EARTH
REF_FRAME      = TEME
TIME_SYSTEM    = UTC
MEAN_ELEMENT_THEORY = SGP/SGP4

EPOCH          = 2025-12-14T22:25:19.387488
MEAN_MOTION    = 15.15476675
ECCENTRICITY   = .00106407
INCLINATION    = 51.7965
RA_OF_ASC_NODE = 322.5909
ARG_OF_PERICENTER = 7.7095
MEAN_ANOMALY   = 352.4043

EPHEMERIS_TYPE = 0
CLASSIFICATION_TYPE = U
NORAD_CAT_ID   = 66546
ELEMENT_SET_NO = 999
REV_AT_EPOCH   = 391
BSTAR          = .52995619E-3
MEAN_MOTION_DOT = .9872E-4
MEAN_MOTION_DDOT = 0

CCSDS_OMM_VERS = 2.0
CREATION_DATE  = 
ORIGINATOR     = 

OBJECT_NAME    = SHIJIAN-30C
OBJECT_ID      = 2025-266C
CENTER_NAME    = EARTH
REF_FRAME      = TEME
TIME_SYSTEM    = UTC
MEAN_ELEMENT_THEORY = SGP/SGP4

EPOCH          = 2025-12-14T22:26:00.736800
MEAN_MOTION    = 15.15425357
ECCENTRICITY   = .00114983
INCLINATION    = 51.7975
RA_OF_ASC_NODE = 322.5958
ARG_OF_PERICENTER = 359.3825
MEAN_ANOMALY   = 0.7136

EPHEMERIS_TYPE = 0
CLASSIFICATION_TYPE = U
NORAD_CAT_ID   = 66547
ELEMENT_SET_NO = 999
REV_AT_EPOCH   = 391
BSTAR          = .4738064E-3
MEAN_MOTION_DOT = .878E-4
MEAN_MOTION_DDOT = 0

CCSDS_OMM_VERS = 2.0
CREATION_DATE  = 
ORIGINATOR     = 

OBJECT_NAME    = CZ-2C R/B
OBJECT_ID      = 2025-266D
CENTER_NAME    = EARTH
REF_FRAME      = TEME
TIME_SYSTEM    = UTC
MEAN_ELEMENT_THEORY = SGP/SGP4

EPOCH          = 2025-12-14T22:52:05.153088
MEAN_MOTION    = 15.30229164
ECCENTRICITY   = .00838141
INCLINATION    = 52.0542
RA_OF_ASC_NODE = 320.7359
ARG_OF_PERICENTER = 180.6814
MEAN_ANOMALY   = 179.4072

EPHEMERIS_TYPE = 0
CLASSIFICATION_TYPE = U
NORAD_CAT_ID   = 66548
ELEMENT_SET_NO = 999
REV_AT_EPOCH   = 395
BSTAR          = .24604884E-3
MEAN_MOTION_DOT = .7727E-4
MEAN_MOTION_DDOT = 0

CCSDS_OMM_VERS = 2.0
CREATION_DATE  = 
ORIGINATOR     = 

OBJECT_NAME    = SHIJIAN-28
OBJECT_ID      = 2025-277A
CENTER_NAME    = EARTH
REF_FRAME      = TEME
TIME_SYSTEM    = UTC
MEAN_ELEMENT_THEORY = SGP/SGP4

EPOCH          = 2025-12-14T21:58:24.129984
MEAN_MOTION    = 1.00271392
ECCENTRICITY   = .00008924
INCLINATION    = 5.0130
RA_OF_ASC_NODE = 274.9222
ARG_OF_PERICENTER = 134.0869
MEAN_ANOMALY   = 121.2746

EPHEMERIS_TYPE = 0
CLASSIFICATION_TYPE = U
NORAD_CAT_ID   = 66549
ELEMENT_SET_NO = 999
REV_AT_EPOCH   = 30
BSTAR          = 0
MEAN_MOTION_DOT = -.338E-5
MEAN_MOTION_DDOT = 0

CCSDS_OMM_VERS = 2.0
CREATION_DATE  = 
ORIGINATOR     = 

OBJECT_NAME    = CZ-7A R/B
OBJECT_ID      = 2025-277B
CENTER_NAME    = EARTH
REF_FRAME      = TEME
TIME_SYSTEM    = UTC
MEAN_ELEMENT_THEORY = SGP/SGP4

EPOCH          = 2025-12-12T23:59:46.063680
MEAN_MOTION    = 2.69999213
ECCENTRICITY   = .70164962
INCLINATION    = 14.3833
RA_OF_ASC_NODE = 269.7494
ARG_OF_PERICENTER = 189.2871
MEAN_ANOMALY   = 143.2042

EPHEMERIS_TYPE = 0
CLASSIFICATION_TYPE = U
NORAD_CAT_ID   = 66550
ELEMENT_SET_NO = 999
REV_AT_EPOCH   = 35
BSTAR          = .22608485E-2
MEAN_MOTION_DOT = .1807848E-1
MEAN_MOTION_DDOT = -.255676E-6

CCSDS_OMM_VERS = 2.0
CREATION_DATE  = 
ORIGINATOR     = 

OBJECT_NAME    = USA 568
OBJECT_ID      = 2024-134K
CENTER_NAME    = EARTH
REF_FRAME      = TEME
TIME_SYSTEM    = UTC
MEAN_ELEMENT_THEORY = SGP/SGP4

EPOCH          = 2025-12-02T16:00:03.000096
MEAN_MOTION    = 15.87051116
ECCENTRICITY   = .0000717
INCLINATION    = 53.1571
RA_OF_ASC_NODE = 236.7807
ARG_OF_PERICENTER = 110.7411
MEAN_ANOMALY   = 313.9012

EPHEMERIS_TYPE = 0
CLASSIFICATION_TYPE = U
NORAD_CAT_ID   = 66551
ELEMENT_SET_NO = 999
REV_AT_EPOCH   = 262
BSTAR          = -.74303E-2
MEAN_MOTION_DOT = -.1709685E-1
MEAN_MOTION_DDOT = 0

CCSDS_OMM_VERS = 2.0
CREATION_DATE  = 
ORIGINATOR     = 

OBJECT_NAME    = GLOBAL-33
OBJECT_ID      = 2025-267A
CENTER_NAME    = EARTH
REF_FRAME      = TEME
TIME_SYSTEM    = UTC
MEAN_ELEMENT_THEORY = SGP/SGP4

EPOCH          = 2025-12-14T05:29:19.257504
MEAN_MOTION    = 15.31602676
ECCENTRICITY   = .00047698
INCLINATION    = 42.0183
RA_OF_ASC_NODE = 48.3968
ARG_OF_PERICENTER = 75.1530
MEAN_ANOMALY   = 284.9835

EPHEMERIS_TYPE = 0
CLASSIFICATION_TYPE = U
NORAD_CAT_ID   = 66554
ELEMENT_SET_NO = 999
REV_AT_EPOCH   = 363
BSTAR          = .88997621E-3
MEAN_MOTION_DOT = .27606E-3
MEAN_MOTION_DDOT = 0

