STARLINK-35796          
1 66541U 25265AB  25348.83340278  .00002463  00000+0  66251-4 0  9997
2 66541  43.0005  41.7470 0001315 295.0038  33.6054 15.40678513  5338
STARLINK-35833          
1 66542U 25265AC  25348.83340278 -.02086295  00000+0 -45376-1 0  9999
2 66542  43.0008  41.6649 0001626 267.9816  94.5042 15.47034293  5337
STARLINK-35315          
1 66543U 25265AD  25348.44522348  .00085052  00000+0  14377-2 0  9991
2 66543  42.9999  43.9174 0001017 261.4925  98.5820 15.50621902  4023
STARLINK-35728          
1 66544U 25265AE  25348.44488225  .00080256  00000+0  13586-2 0  9999
2 66544  43.0005  43.9142 0001904 264.9770  95.0873 15.50605053  4029
SHIJIAN-30A             
1 66545U 25266A   25348.93307215  .00008565  00000+0  46148-3 0  9998
2 66545  51.7981 322.5871 0012904   4.3743 355.7344 15.15503547  3914
SHIJIAN-30B             
1 66546U 25266B   25348.93425217  .00009872  00000+0  52996-3 0  9992
2 66546  51.7965 322.5909 0010640   7.7095 352.4043 15.15476675  3912
SHIJIAN-30C             
1 66547U 25266C   25348.93473075  .00008780  00000+0  47381-3 0  9997
2 66547  51.7975 322.5958 0011498 359.3825   0.7136 15.15425357  3914
CZ-2C R/B               
1 66548U 25266D   25348.95283742  .00007727  00000+0  24605-3 0  9994
2 66548  52.0542 320.7359 0083814 180.6814 179.4072 15.30229164  3950
SHIJIAN-28              
1 66549U 25277A   25348.91555706 -.00000338  00000+0  00000+0 0  9996
2 66549   5.0130 274.9222 0000892 134.0869 121.2746  1.00271392   300
CZ-7A R/B               
1 66550U 25277B   25346.99983870  .01807848 -25568-6  22608-2 0  9997
2 66550  14.3833 269.7494 7016496 189.2871 143.2042  2.69999213   350
USA 568                 
1 66551U 24134K   25336.66670139 -.01709685  00000+0 -74303-2 0  9990
2 66551  53.1571 236.7807 0000717 110.7411 313.9012 15.87051116  2624
GLOBAL-33               
1 66554U 25267A   25348.22869511  .00027606  00000+0  88998-3 0  9999
2 66554  42.0183  48.3968 0004769  75.1530 284.9835 15.31602676  3639
